start=new Date('2023-05-23T00:00:00.000Z').valueOf();
sats=[{"TLE_LINE2":"2 56002  42.9999 208.4387 0001353 268.5144 164.5061 15.06312649  1305","TLE_LINE1":"1 56002U 23042S   23142.91667824 -.00932680  00000-0 -67599-1 0  9996","NORAD_CAT_ID":"56002","INCLINATION":"42.9999","APOAPSIS":"548.418","DECAY_DATE":null,"LAUNCH_DATE":"2023-03-24","ELEMENT_SET_NO":"999","EPOCH":"2023-05-22T22:00:00.999936","REV_AT_EPOCH":"130","FILE":"3914964","TIME_SYSTEM":"UTC","BSTAR":"-0.06759900000000","EPHEMERIS_TYPE":"0","SEMIMAJOR_AXIS":"6925.616","PERIOD":"95.598","RA_OF_ASC_NODE":"208.4387","OBJECT_ID":"2023-042S","MEAN_ELEMENT_THEORY":"SGP4","COUNTRY_CODE":"US","MEAN_MOTION_DOT":"-0.00932680","CLASSIFICATION_TYPE":"U","OBJECT_TYPE":"PAYLOAD","REF_FRAME":"TEME","GP_ID":"232361998","RCS_SIZE":"LARGE","MEAN_ANOMALY":"164.5061","OBJECT_NAME":"STARLINK-5799","MEAN_MOTION_DDOT":"0.0000000000000","ARG_OF_PERICENTER":"268.5144","SITE":"AFETR","CENTER_NAME":"EARTH","PERIAPSIS":"546.544","MEAN_MOTION":"15.06312649","ECCENTRICITY":"0.00013530"},{"INCLINATION":"42.9996","NORAD_CAT_ID":"56003","TLE_LINE1":"1 56003U 23042T   23142.91667824 -.00895209  00000-0 -66467-1 0  9995","TLE_LINE2":"2 56003  42.9996 208.6358 0001518 270.1081  80.2820 15.05302941  1305","DECAY_DATE":null,"APOAPSIS":"551.630","ELEMENT_SET_NO":"999","LAUNCH_DATE":"2023-03-24","EPOCH":"2023-05-22T22:00:00.999936","FILE":"3914964","REV_AT_EPOCH":"130","BSTAR":"-0.06646700000000","TIME_SYSTEM":"UTC","SEMIMAJOR_AXIS":"6928.713","EPHEMERIS_TYPE":"0","RA_OF_ASC_NODE":"208.6358","OBJECT_ID":"2023-042T","PERIOD":"95.662","OBJECT_TYPE":"PAYLOAD","CLASSIFICATION_TYPE":"U","COUNTRY_CODE":"US","MEAN_MOTION_DOT":"-0.00895209","MEAN_ELEMENT_THEORY":"SGP4","REF_FRAME":"TEME","OBJECT_NAME":"STARLINK-5789","MEAN_MOTION_DDOT":"0.0000000000000","MEAN_ANOMALY":"80.2820","RCS_SIZE":"LARGE","GP_ID":"232361735","SITE":"AFETR","ARG_OF_PERICENTER":"270.1081","MEAN_MOTION":"15.05302941","PERIAPSIS":"549.526","CENTER_NAME":"EARTH","ECCENTRICITY":"0.00015180"},{"INCLINATION":"42.9998","NORAD_CAT_ID":"56004","TLE_LINE2":"2 56004  42.9998 208.3902 0001321 268.9028 184.1025 15.06545008  1303","TLE_LINE1":"1 56004U 23042U   23142.91667824 -.00932694  00000-0 -67174-1 0  9992","DECAY_DATE":null,"APOAPSIS":"547.684","ELEMENT_SET_NO":"999","LAUNCH_DATE":"2023-03-24","EPOCH":"2023-05-22T22:00:00.999936","FILE":"3914964","REV_AT_EPOCH":"130","BSTAR":"-0.06717400000000","TIME_SYSTEM":"UTC","SEMIMAJOR_AXIS":"6924.904","EPHEMERIS_TYPE":"0","OBJECT_ID":"2023-042U","RA_OF_ASC_NODE":"208.3902","PERIOD":"95.583","OBJECT_TYPE":"PAYLOAD","CLASSIFICATION_TYPE":"U","COUNTRY_CODE":"US","MEAN_MOTION_DOT":"-0.00932694","MEAN_ELEMENT_THEORY":"SGP4","REF_FRAME":"TEME","MEAN_MOTION_DDOT":"0.0000000000000","OBJECT_NAME":"STARLINK-5787","RCS_SIZE":"LARGE","MEAN_ANOMALY":"184.1025","GP_ID":"232360998","SITE":"AFETR","ARG_OF_PERICENTER":"268.9028","MEAN_MOTION":"15.06545008","PERIAPSIS":"545.854","CENTER_NAME":"EARTH","ECCENTRICITY":"0.00013210"},{"OBJECT_ID":"2023-042V","RA_OF_ASC_NODE":"208.4860","PERIOD":"95.613","SEMIMAJOR_AXIS":"6926.351","EPHEMERIS_TYPE":"0","REF_FRAME":"TEME","CLASSIFICATION_TYPE":"U","OBJECT_TYPE":"PAYLOAD","COUNTRY_CODE":"US","MEAN_MOTION_DOT":"-0.00934111","MEAN_ELEMENT_THEORY":"SGP4","SITE":"AFETR","ARG_OF_PERICENTER":"269.9405","OBJECT_NAME":"STARLINK-5801","MEAN_MOTION_DDOT":"0.0000000000000","MEAN_ANOMALY":"143.1828","RCS_SIZE":"LARGE","GP_ID":"232361248","ECCENTRICITY":"0.00013660","MEAN_MOTION":"15.06072959","PERIAPSIS":"547.270","CENTER_NAME":"EARTH","INCLINATION":"43.0006","NORAD_CAT_ID":"56005","TLE_LINE1":"1 56005U 23042V   23142.91667824 -.00934111  00000-0 -68154-1 0  9998","TLE_LINE2":"2 56005  43.0006 208.4860 0001366 269.9405 143.1828 15.06072959  1305","ELEMENT_SET_NO":"999","LAUNCH_DATE":"2023-03-24","DECAY_DATE":null,"APOAPSIS":"549.162","FILE":"3914964","REV_AT_EPOCH":"130","EPOCH":"2023-05-22T22:00:00.999936","BSTAR":"-0.06815400000000","TIME_SYSTEM":"UTC"},{"CENTER_NAME":"EARTH","MEAN_MOTION":"15.07308500","PERIAPSIS":"543.550","ECCENTRICITY":"0.00012720","GP_ID":"232361499","OBJECT_NAME":"STARLINK-5794","MEAN_MOTION_DDOT":"0.0000000000000","RCS_SIZE":"LARGE","MEAN_ANOMALY":"244.7308","ARG_OF_PERICENTER":"270.2460","SITE":"AFETR","MEAN_ELEMENT_THEORY":"SGP4","CLASSIFICATION_TYPE":"U","OBJECT_TYPE":"PAYLOAD","COUNTRY_CODE":"US","MEAN_MOTION_DOT":"-0.00931744","REF_FRAME":"TEME","EPHEMERIS_TYPE":"0","SEMIMAJOR_AXIS":"6922.566","PERIOD":"95.535","RA_OF_ASC_NODE":"208.2413","OBJECT_ID":"2023-042W","BSTAR":"-0.06571600000000","TIME_SYSTEM":"UTC","EPOCH":"2023-05-22T22:00:00.999936","REV_AT_EPOCH":"130","FILE":"3914964","DECAY_DATE":null,"APOAPSIS":"545.311","LAUNCH_DATE":"2023-03-24","ELEMENT_SET_NO":"999","TLE_LINE1":"1 56006U 23042W   23142.91667824 -.00931744  00000-0 -65716-1 0  9999","TLE_LINE2":"2 56006  42.9994 208.2413 0001272 270.2460 244.7308 15.07308500  1300","INCLINATION":"42.9994","NORAD_CAT_ID":"56006"},{"LAUNCH_DATE":"2023-03-24","ELEMENT_SET_NO":"999","APOAPSIS":"546.949","DECAY_DATE":null,"TLE_LINE1":"1 56007U 23042X   23142.91667824 -.00931920  00000-0 -66683-1 0  9990","TLE_LINE2":"2 56007  42.9999 208.3437 0001305 273.3887 198.9859 15.06781209  1308","NORAD_CAT_ID":"56007","INCLINATION":"42.9999","TIME_SYSTEM":"UTC","BSTAR":"-0.06668300000000","REV_AT_EPOCH":"130","FILE":"3914964","EPOCH":"2023-05-22T22:00:00.999936","REF_FRAME":"TEME","MEAN_ELEMENT_THEORY":"SGP4","COUNTRY_CODE":"US","MEAN_MOTION_DOT":"-0.00931920","CLASSIFICATION_TYPE":"U","OBJECT_TYPE":"PAYLOAD","PERIOD":"95.568","OBJECT_ID":"2023-042X","RA_OF_ASC_NODE":"208.3437","EPHEMERIS_TYPE":"0","SEMIMAJOR_AXIS":"6924.180","ECCENTRICITY":"0.00013050","CENTER_NAME":"EARTH","PERIAPSIS":"545.142","MEAN_MOTION":"15.06781209","ARG_OF_PERICENTER":"273.3887","SITE":"AFETR","GP_ID":"232362235","MEAN_ANOMALY":"198.9859","RCS_SIZE":"LARGE","OBJECT_NAME":"STARLINK-5806","MEAN_MOTION_DDOT":"0.0000000000000"},{"DECAY_DATE":null,"APOAPSIS":"544.691","LAUNCH_DATE":"2023-03-24","ELEMENT_SET_NO":"999","TLE_LINE2":"2 56008  42.9991 208.2033 0001232 272.2131 258.4775 15.07501823  1303","TLE_LINE1":"1 56008U 23042Y   23142.91667824 -.00931842  00000-0 -65377-1 0  9993","INCLINATION":"42.9991","NORAD_CAT_ID":"56008","BSTAR":"-0.06537700000000","TIME_SYSTEM":"UTC","EPOCH":"2023-05-22T22:00:00.999936","REV_AT_EPOCH":"130","FILE":"3914964","MEAN_ELEMENT_THEORY":"SGP4","CLASSIFICATION_TYPE":"U","OBJECT_TYPE":"PAYLOAD","COUNTRY_CODE":"US","MEAN_MOTION_DOT":"-0.00931842","REF_FRAME":"TEME","EPHEMERIS_TYPE":"0","SEMIMAJOR_AXIS":"6921.974","PERIOD":"95.522","RA_OF_ASC_NODE":"208.2033","OBJECT_ID":"2023-042Y","CENTER_NAME":"EARTH","MEAN_MOTION":"15.07501823","PERIAPSIS":"542.986","ECCENTRICITY":"0.00012320","GP_ID":"232360499","OBJECT_NAME":"STARLINK-5803","MEAN_MOTION_DDOT":"0.0000000000000","MEAN_ANOMALY":"258.4775","RCS_SIZE":"LARGE","ARG_OF_PERICENTER":"272.2131","SITE":"AFETR"},{"BSTAR":"-0.06601500000000","TIME_SYSTEM":"UTC","EPOCH":"2023-05-22T22:00:00.999936","REV_AT_EPOCH":"130","FILE":"3914964","DECAY_DATE":null,"APOAPSIS":"545.910","LAUNCH_DATE":"2023-03-24","ELEMENT_SET_NO":"999","TLE_LINE2":"2 56009  42.9993 208.2779 0001299 277.2750 222.2331 15.07119036  1306","TLE_LINE1":"1 56009U 23042Z   23142.91667824 -.00931194  00000-0 -66015-1 0  9994","INCLINATION":"42.9993","NORAD_CAT_ID":"56009","CENTER_NAME":"EARTH","MEAN_MOTION":"15.07119036","PERIAPSIS":"544.111","ECCENTRICITY":"0.00012990","GP_ID":"232360749","OBJECT_NAME":"STARLINK-5964","MEAN_MOTION_DDOT":"0.0000000000000","RCS_SIZE":"LARGE","MEAN_ANOMALY":"222.2331","ARG_OF_PERICENTER":"277.2750","SITE":"AFETR","MEAN_ELEMENT_THEORY":"SGP4","OBJECT_TYPE":"PAYLOAD","CLASSIFICATION_TYPE":"U","MEAN_MOTION_DOT":"-0.00931194","COUNTRY_CODE":"US","REF_FRAME":"TEME","EPHEMERIS_TYPE":"0","SEMIMAJOR_AXIS":"6923.146","PERIOD":"95.547","OBJECT_ID":"2023-042Z","RA_OF_ASC_NODE":"208.2779"},{"EPOCH":"2023-05-22T22:00:00.999936","REV_AT_EPOCH":"130","FILE":"3914964","TIME_SYSTEM":"UTC","BSTAR":"-0.06513500000000","TLE_LINE2":"2 56010  42.9986 208.1748 0001293 274.6948 267.5044 15.07641138  1305","TLE_LINE1":"1 56010U 23042AA  23142.91667824 -.00931945  00000-0 -65135-1 0  9992","NORAD_CAT_ID":"56010","INCLINATION":"42.9986","APOAPSIS":"544.307","DECAY_DATE":null,"LAUNCH_DATE":"2023-03-24","ELEMENT_SET_NO":"999","GP_ID":"232361999","MEAN_ANOMALY":"267.5044","RCS_SIZE":"LARGE","OBJECT_NAME":"STARLINK-5968","MEAN_MOTION_DDOT":"0.0000000000000","ARG_OF_PERICENTER":"274.6948","SITE":"AFETR","CENTER_NAME":"EARTH","PERIAPSIS":"542.517","MEAN_MOTION":"15.07641138","ECCENTRICITY":"0.00012930","EPHEMERIS_TYPE":"0","SEMIMAJOR_AXIS":"6921.547","PERIOD":"95.513","OBJECT_ID":"2023-042AA","RA_OF_ASC_NODE":"208.1748","MEAN_ELEMENT_THEORY":"SGP4","COUNTRY_CODE":"US","MEAN_MOTION_DOT":"-0.00931945","CLASSIFICATION_TYPE":"U","OBJECT_TYPE":"PAYLOAD","REF_FRAME":"TEME"},{"RCS_SIZE":"LARGE","MEAN_ANOMALY":"200.2895","MEAN_MOTION_DDOT":"0.0000000000000","OBJECT_NAME":"STARLINK-5936","GP_ID":"232361736","SITE":"AFETR","ARG_OF_PERICENTER":"159.8281","PERIAPSIS":"422.477","MEAN_MOTION":"15.46175672","CENTER_NAME":"EARTH","ECCENTRICITY":"0.00080080","SEMIMAJOR_AXIS":"6806.063","EPHEMERIS_TYPE":"0","OBJECT_ID":"2023-042AB","RA_OF_ASC_NODE":"201.9944","PERIOD":"93.133","COUNTRY_CODE":"US","MEAN_MOTION_DOT":"-0.00336856","CLASSIFICATION_TYPE":"U","OBJECT_TYPE":"PAYLOAD","MEAN_ELEMENT_THEORY":"SGP4","REF_FRAME":"TEME","EPOCH":"2023-05-22T15:02:53.183616","FILE":"3914964","REV_AT_EPOCH":"925","TIME_SYSTEM":"UTC","BSTAR":"-0.00697640000000","NORAD_CAT_ID":"56011","INCLINATION":"42.9987","TLE_LINE2":"2 56011  42.9987 201.9944 0008008 159.8281 200.2895 15.46175672  9259","TLE_LINE1":"1 56011U 23042AB  23142.62700444 -.00336856  00000-0 -69764-2 0  9990","APOAPSIS":"433.378","DECAY_DATE":null,"ELEMENT_SET_NO":"999","LAUNCH_DATE":"2023-03-24"}];
